LYNK TOWER 6            
1 59123U 24043AB  26068.89488777  .00011440  00000+0  40142-3 0  9996
2 59123  97.5426 204.1954 0009749 232.0253 128.0107 15.29548678111845
STARLINK-34255          
1 65417U 25192P   26068.76973275  .00011822  00000+0  41068-3 0  9995
2 65417  53.1598 232.1756 0000837  84.1723 275.9373 15.30196109 29399
