[{"OBJECT_NAME":"LYNK TOWER 6","OBJECT_ID":"2024-043AB","EPOCH":"2026-03-09T21:28:38.303328","MEAN_MOTION":15.29548678,"ECCENTRICITY":0.00097492,"INCLINATION":97.5426,"RA_OF_ASC_NODE":204.1954,"ARG_OF_PERICENTER":232.0253,"MEAN_ANOMALY":128.0107,"EPHEMERIS_TYPE":0,"CLASSIFICATION_TYPE":"U","NORAD_CAT_ID":59123,"ELEMENT_SET_NO":999,"REV_AT_EPOCH":11184,"BSTAR":0.00040142146,"MEAN_MOTION_DOT":0.0001144,"MEAN_MOTION_DDOT":0},{"OBJECT_NAME":"STARLINK-34255","OBJECT_ID":"2025-192P","EPOCH":"2026-03-09T18:28:24.909600","MEAN_MOTION":15.30196109,"ECCENTRICITY":8.376e-5,"INCLINATION":53.1598,"RA_OF_ASC_NODE":232.1756,"ARG_OF_PERICENTER":84.1723,"MEAN_ANOMALY":275.9373,"EPHEMERIS_TYPE":0,"CLASSIFICATION_TYPE":"U","NORAD_CAT_ID":65417,"ELEMENT_SET_NO":999,"REV_AT_EPOCH":2939,"BSTAR":0.00041067785,"MEAN_MOTION_DOT":0.00011822,"MEAN_MOTION_DDOT":0}]
